ONEWEB-0037             
1 45440U 20020S   24097.92146209  .00000460  00000+0  12608-2 0  9994
2 45440  87.9025 180.3784 0002148  96.0580 264.0793 13.11416064197672
ONEWEB-0042             
1 45441U 20020T   24097.92943939 -.00000057  00000+0 -19732-3 0  9990
2 45441  87.9028 180.4033 0001886  98.8650 261.2691 13.11414538197647
ONEWEB-0098             
1 45442U 20020U   24097.92308648  .00000252  00000+0  67505-3 0  9999
2 45442  87.9032 180.4141 0001956 107.0023 253.1319 13.11414819197625
ONEWEB-0055             
1 45443U 20020V   24097.52943455  .00000694  00000+0  19229-2 0  9996
2 45443  87.9031 180.4950 0001937 106.3199 253.8142 13.11416474197549
ONEWEB-0093             
1 45444U 20020W   24097.50262705 -.00000085  00000+0 -27688-3 0  9992
2 45444  87.9035 180.4803 0001711 106.2601 253.8715 13.11420395197608
ONEWEB-0029             
1 45445U 20020X   24097.67471188  .00000502  00000+0  13800-2 0  9990
2 45445  87.9033 180.4601 0001900  96.5762 263.5582 13.11418956197602
ONEWEB-0068             
1 45446U 20020Y   24097.49693513 -.00000352  00000+0 -10295-2 0  9999
2 45446  87.9035 180.4804 0001835 102.4634 257.6699 13.11416435197526
ONEWEB-0046             
1 45447U 20020Z   24097.49450357 -.00000346  00000+0 -10134-2 0  9992
2 45447  87.9035 180.4930 0002174  94.4889 265.6488 13.11416867197531
